[{"OBJECT_NAME":"HXMT (HUIYAN)","OBJECT_ID":"2017-034A","EPOCH":"2026-04-27T06:42:13.082112","MEAN_MOTION":15.18003151,"ECCENTRICITY":0.00316181,"INCLINATION":43.0131,"RA_OF_ASC_NODE":106.4053,"ARG_OF_PERICENTER":184.7705,"MEAN_ANOMALY":175.2846,"EPHEMERIS_TYPE":0,"CLASSIFICATION_TYPE":"U","NORAD_CAT_ID":42758,"ELEMENT_SET_NO":999,"REV_AT_EPOCH":48992,"BSTAR":0.00021074357,"MEAN_MOTION_DOT":4.177e-5,"MEAN_MOTION_DDOT":0},{"OBJECT_NAME":"SAOCOM 1A","OBJECT_ID":"2018-076A","EPOCH":"2026-04-27T07:12:52.528608","MEAN_MOTION":14.82155412,"ECCENTRICITY":0.00015568,"INCLINATION":97.8905,"RA_OF_ASC_NODE":304.7859,"ARG_OF_PERICENTER":88.822,"MEAN_ANOMALY":271.3172,"EPHEMERIS_TYPE":0,"CLASSIFICATION_TYPE":"U","NORAD_CAT_ID":43641,"ELEMENT_SET_NO":999,"REV_AT_EPOCH":40856,"BSTAR":6.0797433e-5,"MEAN_MOTION_DOT":4.32e-6,"MEAN_MOTION_DDOT":0},{"OBJECT_NAME":"H-2A R/B","OBJECT_ID":"2018-084L","EPOCH":"2026-04-27T04:40:53.558976","MEAN_MOTION":15.43266356,"ECCENTRICITY":0.00234631,"INCLINATION":98.8661,"RA_OF_ASC_NODE":345.0127,"ARG_OF_PERICENTER":211.7002,"MEAN_ANOMALY":148.283,"EPHEMERIS_TYPE":0,"CLASSIFICATION_TYPE":"U","NORAD_CAT_ID":43682,"ELEMENT_SET_NO":999,"REV_AT_EPOCH":41325,"BSTAR":0.00050514658,"MEAN_MOTION_DOT":0.00022613,"MEAN_MOTION_DDOT":0},{"OBJECT_NAME":"SAOCOM 1B","OBJECT_ID":"2020-059A","EPOCH":"2026-04-27T06:20:36.538656","MEAN_MOTION":14.82142192,"ECCENTRICITY":0.000152,"INCLINATION":97.8896,"RA_OF_ASC_NODE":303.8436,"ARG_OF_PERICENTER":87.2271,"MEAN_ANOMALY":272.9116,"EPHEMERIS_TYPE":0,"CLASSIFICATION_TYPE":"U","NORAD_CAT_ID":46265,"ELEMENT_SET_NO":999,"REV_AT_EPOCH":30594,"BSTAR":3.5216713e-5,"MEAN_MOTION_DOT":2.28e-6,"MEAN_MOTION_DDOT":0},{"OBJECT_NAME":"CSS (TIANHE)","OBJECT_ID":"2021-035A","EPOCH":"2026-04-27T07:29:26.488896","MEAN_MOTION":15.6304345,"ECCENTRICITY":0.00068174,"INCLINATION":41.4669,"RA_OF_ASC_NODE":271.7854,"ARG_OF_PERICENTER":282.338,"MEAN_ANOMALY":77.6697,"EPHEMERIS_TYPE":0,"CLASSIFICATION_TYPE":"U","NORAD_CAT_ID":48274,"ELEMENT_SET_NO":999,"REV_AT_EPOCH":28521,"BSTAR":0.00031168042,"MEAN_MOTION_DOT":0.00028957,"MEAN_MOTION_DDOT":0},{"OBJECT_NAME":"COSMOS 2550","OBJECT_ID":"2021-056A","EPOCH":"2026-04-26T02:51:09.008064","MEAN_MOTION":15.33825107,"ECCENTRICITY":0.00084382,"INCLINATION":67.1429,"RA_OF_ASC_NODE":257.4092,"ARG_OF_PERICENTER":269.8521,"MEAN_ANOMALY":90.1667,"EPHEMERIS_TYPE":0,"CLASSIFICATION_TYPE":"U","NORAD_CAT_ID":48865,"ELEMENT_SET_NO":999,"REV_AT_EPOCH":27073,"BSTAR":3.36319e-6,"MEAN_MOTION_DOT":-8.1e-7,"MEAN_MOTION_DDOT":0},{"OBJECT_NAME":"CZ-2C R/B","OBJECT_ID":"2022-058K","EPOCH":"2026-04-27T06:03:53.576352","MEAN_MOTION":15.57878149,"ECCENTRICITY":0.00385892,"INCLINATION":50.1873,"RA_OF_ASC_NODE":67.7823,"ARG_OF_PERICENTER":48.9114,"MEAN_ANOMALY":311.518,"EPHEMERIS_TYPE":0,"CLASSIFICATION_TYPE":"U","NORAD_CAT_ID":52794,"ELEMENT_SET_NO":999,"REV_AT_EPOCH":21769,"BSTAR":0.00066151179,"MEAN_MOTION_DOT":0.00051963,"MEAN_MOTION_DDOT":0},{"OBJECT_NAME":"CZ-2C R/B","OBJECT_ID":"2022-132E","EPOCH":"2026-04-26T23:50:15.998208","MEAN_MOTION":15.66287301,"ECCENTRICITY":0.00128972,"INCLINATION":97.2935,"RA_OF_ASC_NODE":121.9445,"ARG_OF_PERICENTER":266.3542,"MEAN_ANOMALY":93.6243,"EPHEMERIS_TYPE":0,"CLASSIFICATION_TYPE":"U","NORAD_CAT_ID":54039,"ELEMENT_SET_NO":999,"REV_AT_EPOCH":19792,"BSTAR":0.00049576195,"MEAN_MOTION_DOT":0.00051488,"MEAN_MOTION_DDOT":0},{"OBJECT_NAME":"GSLV R/B","OBJECT_ID":"2022-138AN","EPOCH":"2026-04-27T02:51:57.687552","MEAN_MOTION":14.97032077,"ECCENTRICITY":0.0020386,"INCLINATION":87.3813,"RA_OF_ASC_NODE":150.1345,"ARG_OF_PERICENTER":342.5262,"MEAN_ANOMALY":17.5266,"EPHEMERIS_TYPE":0,"CLASSIFICATION_TYPE":"U","NORAD_CAT_ID":54149,"ELEMENT_SET_NO":999,"REV_AT_EPOCH":19117,"BSTAR":0.00018838149,"MEAN_MOTION_DOT":2.205e-5,"MEAN_MOTION_DDOT":0},{"OBJECT_NAME":"XRISM","OBJECT_ID":"2023-137A","EPOCH":"2026-04-27T07:13:29.570880","MEAN_MOTION":15.12020488,"ECCENTRICITY":0.00075576,"INCLINATION":31.0025,"RA_OF_ASC_NODE":329.1093,"ARG_OF_PERICENTER":170.5111,"MEAN_ANOMALY":189.5671,"EPHEMERIS_TYPE":0,"CLASSIFICATION_TYPE":"U","NORAD_CAT_ID":57800,"ELEMENT_SET_NO":999,"REV_AT_EPOCH":14515,"BSTAR":0.00038317215,"MEAN_MOTION_DOT":6.85e-5,"MEAN_MOTION_DDOT":0},{"OBJECT_NAME":"ACS3","OBJECT_ID":"2024-077B","EPOCH":"2026-04-27T06:37:38.567712","MEAN_MOTION":13.91964088,"ECCENTRICITY":0.00596479,"INCLINATION":97.1819,"RA_OF_ASC_NODE":47.4742,"ARG_OF_PERICENTER":344.8512,"MEAN_ANOMALY":15.0865,"EPHEMERIS_TYPE":0,"CLASSIFICATION_TYPE":"U","NORAD_CAT_ID":59588,"ELEMENT_SET_NO":999,"REV_AT_EPOCH":10095,"BSTAR":0.017792894,"MEAN_MOTION_DOT":0.00023068,"MEAN_MOTION_DDOT":0},{"OBJECT_NAME":"HTV-X1","OBJECT_ID":"2025-241A","EPOCH":"2026-04-22T23:48:46.558656","MEAN_MOTION":15.32728944,"ECCENTRICITY":0.00078219,"INCLINATION":51.6353,"RA_OF_ASC_NODE":219.4042,"ARG_OF_PERICENTER":344.1053,"MEAN_ANOMALY":15.9682,"EPHEMERIS_TYPE":0,"CLASSIFICATION_TYPE":"U","NORAD_CAT_ID":66174,"ELEMENT_SET_NO":999,"REV_AT_EPOCH":2773,"BSTAR":0.00014900059,"MEAN_MOTION_DOT":4.413e-5,"MEAN_MOTION_DDOT":0},{"OBJECT_NAME":"SZ-21 MODULE","OBJECT_ID":"2025-246C","EPOCH":"2026-04-26T16:53:00.098304","MEAN_MOTION":15.72262877,"ECCENTRICITY":0.00039399,"INCLINATION":41.4732,"RA_OF_ASC_NODE":266.952,"ARG_OF_PERICENTER":331.6776,"MEAN_ANOMALY":28.3852,"EPHEMERIS_TYPE":0,"CLASSIFICATION_TYPE":"U","NORAD_CAT_ID":66515,"ELEMENT_SET_NO":999,"REV_AT_EPOCH":2562,"BSTAR":0.0003378853,"MEAN_MOTION_DOT":0.0004598,"MEAN_MOTION_DDOT":0}]
