HXMT (HUIYAN)           
1 42758U 17034A   26117.27931808  .00004177  00000+0  21074-3 0  9991
2 42758  43.0131 106.4053 0031618 184.7705 175.2846 15.18003151489920
SAOCOM 1A               
1 43641U 18076A   26117.30060797  .00000432  00000+0  60797-4 0  9990
2 43641  97.8905 304.7859 0001556  88.8220 271.3172 14.82155412408568
H-2A R/B                
1 43682U 18084L   26117.19506434  .00022613  00000+0  50515-3 0  9995
2 43682  98.8661 345.0127 0023463 211.7002 148.2830 15.43266356413258
SAOCOM 1B               
1 46265U 20059A   26117.26431179  .00000228  00000+0  35217-4 0  9992
2 46265  97.8896 303.8436 0001520  87.2271 272.9116 14.82142192305947
CSS (TIANHE)            
1 48274U 21035A   26117.31211214  .00028957  00000+0  31168-3 0  9990
2 48274  41.4669 271.7854 0006817 282.3380  77.6697 15.63043450285210
COSMOS 2550             
1 48865U 21056A   26116.11885426 -.00000081  00000+0  33632-5 0  9997
2 48865  67.1429 257.4092 0008438 269.8521  90.1667 15.33825107270730
CZ-2C R/B               
1 52794U 22058K   26117.25270343  .00051963  00000+0  66151-3 0  9992
2 52794  50.1873  67.7823 0038589  48.9114 311.5180 15.57878149217695
CZ-2C R/B               
1 54039U 22132E   26116.99324072  .00051488  00000+0  49576-3 0  9992
2 54039  97.2935 121.9445 0012897 266.3542  93.6243 15.66287301197923
GSLV R/B                
1 54149U 22138AN  26117.11941768  .00002205  00000+0  18838-3 0  9992
2 54149  87.3813 150.1345 0020386 342.5262  17.5266 14.97032077191173
XRISM                   
1 57800U 23137A   26117.30103670  .00006850  00000+0  38317-3 0  9996
2 57800  31.0025 329.1093 0007557 170.5111 189.5671 15.12020488145154
ACS3                    
1 59588U 24077B   26117.27614083  .00023068  00000+0  17793-1 0  9999
2 59588  97.1819  47.4742 0059647 344.8512  15.0865 13.91964088100957
HTV-X1                  
1 66174U 25241A   26112.99220554  .00004413  00000+0  14900-3 0  9994
2 66174  51.6353 219.4042 0007821 344.1053  15.9682 15.32728944 27734
SZ-21 MODULE            
1 66515U 25246C   26116.70347336  .00045980  00000+0  33789-3 0  9999
2 66515  41.4732 266.9520 0003939 331.6776  28.3852 15.72262877 25623
